[{"OBJECT_NAME":"TRANSPORTER-10 OBJECT AD","OBJECT_ID":"2024-043AD","EPOCH":"2026-03-09T20:38:52.416960","MEAN_MOTION":15.34189901,"ECCENTRICITY":0.00089841,"INCLINATION":97.547,"RA_OF_ASC_NODE":207.3753,"ARG_OF_PERICENTER":221.4908,"MEAN_ANOMALY":138.5653,"EPHEMERIS_TYPE":0,"CLASSIFICATION_TYPE":"U","NORAD_CAT_ID":59125,"ELEMENT_SET_NO":999,"REV_AT_EPOCH":11202,"BSTAR":0.00036310552,"MEAN_MOTION_DOT":0.00011954,"MEAN_MOTION_DDOT":0},{"OBJECT_NAME":"STARLINK-35594","OBJECT_ID":"2025-240M","EPOCH":"2026-03-09T08:52:35.921280","MEAN_MOTION":15.30198855,"ECCENTRICITY":0.0001623,"INCLINATION":53.1614,"RA_OF_ASC_NODE":64.0013,"ARG_OF_PERICENTER":75.4773,"MEAN_ANOMALY":284.6408,"EPHEMERIS_TYPE":0,"CLASSIFICATION_TYPE":"U","NORAD_CAT_ID":66157,"ELEMENT_SET_NO":999,"REV_AT_EPOCH":2194,"BSTAR":0.0014099038,"MEAN_MOTION_DOT":0.00041631,"MEAN_MOTION_DDOT":0}]
